IRIDIUM 63              
1 25286U 98021B   25262.49117003  .00000448  00000+0  14586-3 0  9997
2 25286  86.3980  42.5398 0002065  87.1121 273.0312 14.36614745437387
IRIDIUM 69              
1 25319U 98026A   25262.49190340  .00000461  00000+0  13721-3 0  9999
2 25319  86.3946  55.5360 0004450  81.6755 278.4949 14.41048401436640
IRIDIUM 71              
1 25320U 98026B   25262.48665525  .00000336  00000+0  97815-4 0  9990
2 25320  86.3956  50.2155 0003973 112.9095 247.2524 14.41228598437170
IRIDIUM 73              
1 25344U 98032C   25262.21502288  .00000596  00000+0  14297-3 0  9990
2 25344  86.4470   6.8805 0002669  80.7311 279.4197 14.51820540444202
IRIDIUM 82              
1 25467U 98051A   25262.53384302  .00027382  00000+0  68945-3 0  9998
2 25467  86.3609  63.1614 0075599 297.6022  61.7567 15.36797675438421
